STARLINK-32619          
1 62074U 24217T   26080.88185473  .00018855  00000+0  64696-3 0  9995
2 62074  53.1613 137.5736 0001550 101.0989 259.0187 15.30206681 75287
STARLINK-32580          
1 62075U 24217U   26081.26158220 -.00010856  00000+0 -35514-3 0  9991
2 62075  53.1568 122.8944 0001540  96.5071 263.6105 15.30179518 75520
STARLINK-32617          
1 62076U 24217V   26080.84330388  .00019631  00000+0  67256-3 0  9998
2 62076  53.1593 124.5522 0001312  93.5648 266.5503 15.30230176 75469
STARLINK-11384 [DTC]    
1 62088U 24220A   26079.71943059  .00174532  00000+0  13320-2 0  9998
2 62088  42.9994 336.9667 0001520 265.3422  94.7272 15.70898353 76783
STARLINK-11379 [DTC]    
1 62089U 24220B   26080.98576716  .00244392  00000+0  18392-2 0  9998
2 62089  43.0009 329.2583 0000844 190.5632 169.5218 15.71013112 76880
STARLINK-11387 [DTC]    
1 62090U 24220C   26080.98045878  .00239504  00000+0  18167-2 0  9999
2 62090  43.0000 329.2163 0000694 184.9161 175.1700 15.70839443 76986
STARLINK-11389 [DTC]    
1 62091U 24220D   26080.97514936  .00194286  00000+0  14854-2 0  9991
2 62091  42.9990 329.1731 0001559 294.3428  65.7277 15.70793244 76886
STARLINK-11388 [DTC]    
1 62092U 24220E   26080.96984017  .00294520  00000+0  22195-2 0  9991
2 62092  42.9998 329.1312 0001534 252.4546 107.6154 15.70827403 76884
STARLINK-11345 [DTC]    
1 62093U 24220F   26080.39228138  .00286235  00000+0  21438-2 0  9997
2 62093  42.9973 332.5384 0003253 282.4466  77.6037 15.70998385 76793
STARLINK-11381 [DTC]    
1 62094U 24220G   26080.95921491  .00323221  00000+0  24075-2 0  9999
2 62094  43.0007 329.0454 0003358 250.0143 110.0363 15.71018213 76880
STARLINK-11369 [DTC]    
1 62095U 24220H   26080.69956473  .00404045  00000+0  29599-2 0  9999
2 62095  42.9991 330.5365 0003291 243.5989 116.4541 15.71174570 76944
STARLINK-11303 [DTC]    
1 62096U 24220J   26080.75784476  .00297631  00000+0  22409-2 0  9993
2 62096  42.9998 330.1086 0004972 294.2491  65.7857 15.70832977 76954
STARLINK-11367 [DTC]    
1 62097U 24220K   26080.75253556  .00285067  00000+0  21461-2 0  9991
2 62097  43.0000 330.0674 0006341 295.7871  64.2342 15.70865039 76951
STARLINK-11386 [DTC]    
1 62098U 24220L   26080.74722652  .00372938  00000+0  27891-2 0  9996
2 62098  42.9990 330.0231 0001038 246.7097 113.3661 15.70773110 76858
STARLINK-11380 [DTC]    
1 62099U 24220M   26081.12342496  .00215944  00000+0  16428-2 0  9991
2 62099  42.9985 327.6803 0000810 278.9580  81.1196 15.70843151 76916
STARLINK-33566          
1 62100U 24220N   26080.80412106  .00025706  00000+0  94020-3 0  9994
2 62100  42.9971 122.4157 0000954 283.9109  76.1637 15.27586970 75210
STARLINK-33545          
1 62101U 24220P   26080.84844070  .00027241  00000+0  99565-3 0  9993
2 62101  43.0030 136.6262 0000289  38.1261 321.9611 15.27585033 74887
STARLINK-33562          
1 62102U 24220Q   26080.53307811  .00028866  00000+0  10530-2 0  9995
2 62102  43.0008 138.5626 0001032 277.6360  82.4374 15.27623419 74836
STARLINK-33554          
1 62103U 24220R   26080.45227428  .00028839  00000+0  10522-2 0  9993
2 62103  43.0032 138.8129 0001037 276.9518  83.1216 15.27617192 74752
STARLINK-33555          
1 62104U 24220S   26080.87800257  .00032919  00000+0  11984-2 0  9994
2 62104  42.9994 136.8445 0001163 258.9173 101.1548 15.27635170 75020
STARLINK-33559          
1 62107U 24220V   26081.25002315  .00000920  00000+0  42990-4 0  9999
2 62107  43.0019 134.6970 0001415 254.6284  14.8940 15.27560783  5855
STARLINK-33553          
1 62108U 24220W   26080.86643723  .00037611  00000+0  13694-2 0  9994
2 62108  43.0012 136.7620 0000419 296.7247  63.3561 15.27578765 75059
STARLINK-33556          
1 62109U 24220X   26079.87152877  .00012950  00000+0  47935-3 0  9994
2 62109  43.0012 142.1924 0001346 276.7783  83.2915 15.27576838 74929
STARLINK-33551          
1 62110U 24220Y   26080.60874475  .00024598  00000+0  89936-3 0  9992
2 62110  42.9991 138.2692 0000541 279.1015  80.9776 15.27619021 75016
STARLINK-32311          
1 62114U 24222A   26081.18829644  .00022296  00000+0  81813-3 0  9999
2 62114  42.9987  50.6124 0000713 247.5973 112.4803 15.27545810 74997
STARLINK-32470          
1 62115U 24222B   26081.26088067  .00025099  00000+0  91754-3 0  9994
2 62115  43.0029  65.0121 0000089  39.1693 320.9166 15.27613783 74829
STARLINK-32502          
1 62116U 24222C   26081.21733609  .00033809  00000+0  12308-2 0  9994
2 62116  43.0012  65.5383 0000650 181.2381 178.8469 15.27624065 74724
STARLINK-32521          
1 62117U 24222D   26080.68056142  .00037948  00000+0  13780-2 0  9998
2 62117  43.0066  64.8170 0002858 259.8421 100.2109 15.27659708 74620
STARLINK-32549          
1 62118U 24222E   26081.24674566  .00014615  00000+0  53927-3 0  9992
2 62118  43.0001  64.9061 0000928 244.0955 115.9801 15.27599328 74739
STARLINK-32535          
1 62119U 24222F   26081.22553074  .00034890  00000+0  12695-2 0  9994
2 62119  42.9995  62.1465 0000535 169.0530 191.0333 15.27629746 74718
STARLINK-32548          
1 62120U 24222G   26081.23147142  .00030976  00000+0  11291-2 0  9994
2 62120  42.9990  65.6443 0000588 151.3612 208.7273 15.27619793 74677
STARLINK-32525          
1 62121U 24222H   26081.25319039  .00024359  00000+0  89137-3 0  9996
2 62121  43.0051  64.9532 0001505 263.2558  96.8122 15.27595186 74680
STARLINK-32628          
1 62122U 24222J   26080.42114198  .00026789  00000+0  97837-3 0  9999
2 62122  43.0025  69.8855 0000978 258.1752 101.8990 15.27617258 74715
STARLINK-32626          
1 62123U 24222K   26081.22504812  .00031269  00000+0  11395-2 0  9998
2 62123  42.9989  65.5964 0000352 206.6116 153.4718 15.27622612 74660
STARLINK-32608          
1 62124U 24222L   26079.69547457  .00022695  00000+0  83139-3 0  9998
2 62124  43.0004  73.9011 0000902 272.5895  87.4853 15.27592823 74424
STARLINK-32488          
1 62125U 24222M   26081.23532463  .00030775  00000+0  11216-2 0  9997
2 62125  43.0006  65.6744 0000564 152.1662 207.9220 15.27626701 74562
STARLINK-32490          
1 62126U 24222N   26081.24931354  .00037126  00000+0  13505-2 0  9991
2 62126  43.0003  64.9243 0001225 266.3206  93.7505 15.27612800 74677
STARLINK-32557          
1 62127U 24222P   26081.20335315  .00037726  00000+0  13723-2 0  9991
2 62127  42.9996  54.9070 0001302 256.9528 103.1178 15.27608074 74830
STARLINK-32568          
1 62128U 24222Q   26081.22121460  .00018934  00000+0  69575-3 0  9995
2 62128  42.9957  65.5595 0002496 123.6827 236.4263 15.27581451 74402
STARLINK-32462          
1 62129U 24222R   26081.21911144  .00015832  00000+0  58330-3 0  9992
2 62129  43.0024  62.0938 0001955 250.8928 109.1713 15.27596085 74705
STARLINK-32463          
1 62130U 24222S   26081.25702537  .00044875  00000+0  16263-2 0  9999
2 62130  43.0022  64.9793 0000572 218.0459 142.0352 15.27661713 74676
STARLINK-32550          
1 62131U 24222T   26081.22762324  .00033416  00000+0  12172-2 0  9991
2 62131  42.9971  65.6106 0001172 143.3872 216.7060 15.27610441 74712
STARLINK-32507          
1 62132U 24222U   26081.24289257  .00022755  00000+0  83315-3 0  9995
2 62132  43.0024  64.8774 0000385 156.2619 203.8251 15.27609070 74527
STARLINK-32245          
1 62133U 24222V   26080.95194583  .00029575  00000+0  10793-2 0  9996
2 62133  42.9989  66.9834 0000943 161.7535 198.3351 15.27598949 74783
STARLINK-32546          
1 62134U 24222W   26081.22296789  .00025490  00000+0  93256-3 0  9997
2 62134  42.9974  62.1215 0002075 266.4701  93.5913 15.27580568 74592
STARLINK-32545          
1 62135U 24222X   26080.65071138  .00030502  00000+0  11125-2 0  9997
2 62135  42.9993  69.0264 0002866 278.9795  81.0732 15.27603232 74622
STARLINK-32554          
1 62136U 24222Y   26080.94166684  .00037998  00000+0  13841-2 0  9994
2 62136  43.0027  66.9099 0000650 270.8829  89.1948 15.27560349 74677
STARLINK-32570          
1 62137U 24222Z   26080.94808319  .00032475  00000+0  11829-2 0  9992
2 62137  43.0010  66.9571 0000763 246.6246 113.4525 15.27622230 74775
STARLINK-32529          
1 62139U 24224A   26081.28389062  .00021261  00000+0  77909-3 0  9996
2 62139  43.0036  87.2179 0001615 276.0938  83.9729 15.27614028 74343
STARLINK-32464          
1 62140U 24224B   26081.29159782  .00021542  00000+0  78921-3 0  9990
2 62140  42.9993  87.2521 0000447 139.2695 220.8190 15.27615066 74345
STARLINK-32482          
1 62141U 24224C   26080.72996346  .00031054  00000+0  11330-2 0  9992
2 62141  43.0000  89.9186 0000540 300.5463  59.5335 15.27588172 74168
STARLINK-32454          
1 62142U 24224D   26081.31375488  .00037127  00000+0  13500-2 0  9995
2 62142  42.9989  94.3346 0000978 263.3189  96.7551 15.27626804 74323
STARLINK-32485          
1 62143U 24224E   26081.31153113  .00021218  00000+0  77775-3 0  9994
2 62143  43.0010  90.0029 0001510 272.9761  87.0918 15.27604858 73949
STARLINK-32388          
1 62144U 24224F   26081.30990998  .00013882  00000+0  51260-3 0  9993
2 62144  42.9981  94.3054 0000837 261.6273  98.4483 15.27606754 74327
STARLINK-32374          
1 62145U 24224G   26080.49026215  .00027742  00000+0  10127-2 0  9991
2 62145  43.0025  91.5568 0001448 266.5339  93.5347 15.27616007 74286
STARLINK-32384          
1 62146U 24224H   26081.27618884  .00021149  00000+0  77554-3 0  9991
2 62146  43.0031  87.1373 0000629 186.9344 173.1499 15.27593557 74401
STARLINK-32295          
1 62147U 24224J   26081.28646303  .00023227  00000+0  85031-3 0  9998
2 62147  43.0000  87.2100 0000454 227.7216 132.3597 15.27603471 74295
STARLINK-32479          
1 62148U 24224K   26080.74280125  .00024478  00000+0  89521-3 0  9992
2 62148  43.0030  90.0130 0003217 268.8445  91.2038 15.27609125 74266
STARLINK-32468          
1 62149U 24224L   26080.74152807  .00034983  00000+0  12741-2 0  9999
2 62149  43.0030  90.0009 0000449 290.3877  69.6926 15.27596677 74166
STARLINK-32629          
1 62150U 24224M   26080.71453906  .00018537  00000+0  68096-3 0  9994
2 62150  43.0000  89.7994 0001473 280.9814  79.0872 15.27604433 74320
